{
    "links": {
        "self": "http://www.neowsapp.com/rest/v1/neo/3698576?api_key=iIulBulltgU6a56xZRHN4H3l9WmuAYTsLGpBGhQ2"
    },
    "id": "3698576",
    "neo_reference_id": "3698576",
    "name": "(2014 WY201)",
    "designation": "2014 WY201",
    "nasa_jpl_url": "http://ssd.jpl.nasa.gov/sbdb.cgi?sstr=3698576",
    "absolute_magnitude_h": 25.2,
    "estimated_diameter": {
        "kilometers": {
            "estimated_diameter_min": 0.0242412481,
            "estimated_diameter_max": 0.0542050786
        },
        "meters": {
            "estimated_diameter_min": 24.2412481101,
            "estimated_diameter_max": 54.2050786336
        },
        "miles": {
            "estimated_diameter_min": 0.0150628086,
            "estimated_diameter_max": 0.0336814639
        },
        "feet": {
            "estimated_diameter_min": 79.5316564495,
            "estimated_diameter_max": 177.8381901842
        }
    },
    "is_potentially_hazardous_asteroid": false,
    "close_approach_data": [
        {
            "close_approach_date": "2014-12-04",
            "close_approach_date_full": "2014-Dec-04 00:33",
            "epoch_date_close_approach": 1417653180000,
            "relative_velocity": {
                "kilometers_per_second": "5.1531351689",
                "kilometers_per_hour": "18551.2866078938",
                "miles_per_hour": "11527.0480592215"
            },
            "miss_distance": {
                "astronomical": "0.0591933802",
                "lunar": "23.0262248978",
                "kilometers": "8855203.596020174",
                "miles": "5502368.3663554412"
            },
            "orbiting_body": "Earth"
        }
    ],
    "orbital_data": {
        "orbit_id": "3",
        "orbit_determination_date": "2017-04-06 08:37:13",
        "first_observation_date": "2014-11-22",
        "last_observation_date": "2014-11-26",
        "data_arc_in_days": 4,
        "observations_used": 8,
        "orbit_uncertainty": "8",
        "minimum_orbit_intersection": ".05188",
        "jupiter_tisserand_invariant": "4.197",
        "epoch_osculation": "2456984.5",
        "eccentricity": ".3710117231521394",
        "semi_major_axis": "1.648246279811327",
        "inclination": "5.508189788675285",
        "ascending_node_longitude": "60.75544972157898",
        "orbital_period": "772.9147284148485",
        "perihelion_distance": "1.036727587359423",
        "perihelion_argument": "10.10058787124813",
        "aphelion_distance": "2.259764972263231",
        "perihelion_time": "2456996.154315093513",
        "mean_anomaly": "354.5717770933551",
        "mean_motion": ".4657693620851488",
        "equinox": "J2000",
        "orbit_class": {
            "orbit_class_type": "AMO",
            "orbit_class_description": "Near-Earth asteroid orbits similar to that of 1221 Amor",
            "orbit_class_range": "1.017 AU < q (perihelion) < 1.3 AU"
        }
    },
    "is_sentry_object": false
}